[{"OBJECT_NAME":"COSMO-SKYMED 3","OBJECT_ID":"2008-054A","EPOCH":"2026-03-09T22:03:15.183936","MEAN_MOTION":15.06259488,"ECCENTRICITY":0.00143526,"INCLINATION":97.8419,"RA_OF_ASC_NODE":285.8111,"ARG_OF_PERICENTER":240.3641,"MEAN_ANOMALY":119.6157,"EPHEMERIS_TYPE":0,"CLASSIFICATION_TYPE":"U","NORAD_CAT_ID":33412,"ELEMENT_SET_NO":999,"REV_AT_EPOCH":94199,"BSTAR":0.00061875413,"MEAN_MOTION_DOT":9.042e-5,"MEAN_MOTION_DDOT":0},{"OBJECT_NAME":"STARLINK-30488","OBJECT_ID":"2023-147U","EPOCH":"2026-03-09T02:48:31.979520","MEAN_MOTION":15.02537293,"ECCENTRICITY":9.673e-5,"INCLINATION":43.0042,"RA_OF_ASC_NODE":329.0116,"ARG_OF_PERICENTER":275.0886,"MEAN_ANOMALY":84.9846,"EPHEMERIS_TYPE":0,"CLASSIFICATION_TYPE":"U","NORAD_CAT_ID":57931,"ELEMENT_SET_NO":999,"REV_AT_EPOCH":13653,"BSTAR":-1.4490491e-5,"MEAN_MOTION_DOT":-3.99e-6,"MEAN_MOTION_DDOT":0}]
